SL-14 R/B               
1 20262U 89080C   25300.73670029  .00000293  00000+0  79029-4 0  9995
2 20262  82.5904 258.5443 1231472 128.6562 243.1388 12.50368042643534
DELTA 1 R/B             
1 20323U 89089B   25300.62905663  .00000453  00000+0  12101-3 0  9990
2 20323  97.0805 164.1643 0069059 181.8582 178.2370 14.50515126876445
ARIANE 40 R/B           
1 20443U 90005H   25300.45499763  .00000472  00000+0  16428-3 0  9990
2 20443  98.3305 359.9269 0009125 242.3496 117.6767 14.39744930873639
DELTA 2 R/B(1)          
1 20453U 90008B   25300.36059240  .00032467  00000+0  59044-3 0  9996
2 20453  35.6081 319.0607 0118456 116.6940 244.5973 15.41051700905469
COSMOS 2058             
1 20465U 90010A   25300.84099253  .00004337  00000+0  26512-3 0  9992
2 20465  82.4702 178.1730 0011375  68.5131 291.7310 15.09969229922187
SL-14 R/B               
1 20466U 90010B   25300.54051459  .00000683  00000+0  80147-4 0  9991
2 20466  82.5053  32.4252 0020369  22.8429 337.3687 14.83407475908746
SL-14 R/B               
1 20511U 90018B   25300.43024218  .00000600  00000+0  72578-4 0  9999
2 20511  82.5228 347.6513 0016795 165.6708 194.4987 14.81983015902843
HST                     
1 20580U 90037B   25300.86474387  .00009649  00000+0  34362-3 0  9999
2 20580  28.4672 224.5359 0002150  82.0603 278.0236 15.27180140752970
SL-16 R/B               
1 20625U 90046B   25300.86628591  .00000186  00000+0  12036-3 0  9998
2 20625  71.0000 216.8568 0013037 154.8337 205.3424 14.14991210829603
COSMOS 2084             
1 20663U 90055A   25300.78289495  .00005441  00000+0  39338-3 0  9990
2 20663  62.7910  68.5349 0039483 169.2490 190.9463 15.04590432916312
SL-6 R/B(2)             
1 20666U 90055D   25300.52509549  .00002935  00000+0  23290-3 0  9995
2 20666  62.7849 346.4058 0010700 266.1988  93.7887 15.02736972918176
SL-8 R/B                
1 20775U 90078B   25300.63261687  .00015413  00000+0  47699-3 0  9995
2 20775  82.9086  10.4836 0383802  99.8649 264.6115 14.83641094789534
SL-8 R/B                
1 21088U 91006B   25300.84489698  .00000194  00000+0  17897-3 0  9999
2 21088  82.9394 268.8556 0023659  49.6746  15.0436 13.77479360745784
OKEAN-3                 
1 21397U 91039A   25300.83880360  .00003952  00000+0  28603-3 0  9990
2 21397  82.5144 105.4599 0015781  65.7566 294.5306 15.03655209845066
COSMOS 2151             
1 21422U 91042A   25300.84793394  .00002922  00000+0  23595-3 0  9995
2 21422  82.4991 211.7109 0013400 141.4525 218.7659 14.99436600843282
SL-14 R/B               
1 21423U 91042B   25300.59056583  .00000547  00000+0  66506-4 0  9991
2 21423  82.4942 345.0029 0016046 322.7401  37.2698 14.81678089833362
ERS-1                   
1 21574U 91050A   25300.50854022  .00000480  00000+0  16879-3 0  9995
2 21574  98.7933 310.4000 0031101 236.3532 123.4687 14.39311637796571
ARIANE 40 R/B           
1 21610U 91050F   25300.39072880  .00000517  00000+0  16764-3 0  9991
2 21610  98.2232 352.4789 0004304 112.1661 247.9987 14.42754306799776
INTERCOSMOS 25          
1 21819U 91086A   25300.64681547  .00001347  00000+0  25874-3 0  9999
2 21819  82.6088  30.4272 1488992  43.7101 327.2627 12.11538239480578
SL-8 R/B                
1 21876U 92008B   25300.66970022  .00000114  00000+0  10128-3 0  9995
2 21876  82.9305   6.7096 0035621 144.5460  19.7323 13.75945730691120
SL-8 R/B                
1 21938U 92020B   25300.86842236  .00000079  00000+0  66111-4 0  9999
2 21938  82.9290 252.3803 0027992 310.8116 107.9103 13.75519361682870
USA 81                  
1 21949U 92023A   25300.85636264  .00000284  00000+0  97753-4 0  9999
2 21949  85.0118 208.0289 0002754  90.4910 269.6598 14.32301748 75774
COSMOS 2219             
1 22219U 92076A   25300.39036194  .00000430  00000+0  25019-3 0  9991
2 22219  71.0589 296.7197 0016686  38.8620 321.3698 14.14053467699532
SL-16 R/B               
1 22220U 92076B   25300.46767132 -.00000088  00000+0 -19962-4 0  9996
2 22220  70.9974 108.9997 0014944 294.0609  96.8357 14.16828725702967
COSMOS 2221             
1 22236U 92080A   25300.72141810  .00003224  00000+0  28866-3 0  9991
2 22236  82.5062  46.3523 0013217 279.9737  79.9993 14.95482624760915
SL-16 R/B               
1 22285U 92093B   25300.38368926 -.00000197  00000+0 -76596-4 0  9992
2 22285  71.0202 284.1047 0003690 186.4553 173.6523 14.15418726694295
COSMOS 2228             
1 22286U 92094A   25300.82367426  .00002601  00000+0  22643-3 0  9990
2 22286  82.5207   4.4567 0018858  33.6947 326.5469 14.96425349756183
SL-16 R/B               
1 22566U 93016B   25300.83492156 -.00000108  00000+0 -31043-4 0  9993
2 22566  71.0058 134.2146 0009849 179.2079 180.9061 14.15280155683374
COSMOS 2242             
1 22626U 93024A   25300.68360661  .00003159  00000+0  27994-3 0  9993
2 22626  82.5218  33.8468 0017218  36.9276 323.3127 14.95822942760505
SL-16 R/B               
1 22803U 93059B   25300.50070323  .00000132  00000+0  88888-4 0  9990
2 22803  70.9892 291.9910 0015308  47.5557 312.6858 14.17202311660662
ARIANE 40 R/B           
1 22830U 93061H   25300.66717338  .00000356  00000+0  14664-3 0  9992
2 22830  98.5128   7.0236 0009906 322.6306  37.4189 14.32758333675058
COSMOS 2278             
1 23087U 94023A   25300.84724059 -.00000132  00000+0 -44368-4 0  9993
2 23087  71.0511  93.0208 0010775 239.6333 120.3725 14.14331181626021
SL-16 R/B               
1 23088U 94023B   25300.38906576  .00000290  00000+0  17433-3 0  9994
2 23088  71.0018 350.8267 0002497 183.3680 176.7426 14.14989497627231
SL-16 R/B               
1 23343U 94074B   25300.56081213  .00000710  00000+0  10226-3 0  9996
2 23343  97.7265 331.6864 0005313 301.9927 218.1959 14.79210003667569
SL-16 R/B               
1 23405U 94077B   25300.35196425 -.00000182  00000+0 -68364-4 0  9999
2 23405  70.9814 272.9995 0003420 320.6210  39.4664 14.15539232597368
ARIANE 40+ R/B          
1 23561U 95021B   25300.43953395  .00000482  00000+0  16826-3 0  9994
2 23561  98.4701   8.5762 0006955 172.1899 198.9821 14.39641042600073
SL-16 R/B               
1 23705U 95058B   25300.84703535  .00000224  00000+0  13877-3 0  9995
2 23705  71.0187  99.1520 0013964 315.0795  44.9198 14.15468376549055
SL-16 R/B               
1 24298U 96051B   25300.87909066 -.00000093  00000+0 -23679-4 0  9995
2 24298  70.7580  96.3507 0017039 320.4315  39.5559 14.12392454502897
ORBVIEW 2 (SEASTAR)     
1 24883U 97037A   25300.42066014  .00000533  00000+0  20198-3 0  9997
2 24883  98.8438  96.3374 0003226  93.1212 267.0342 14.35364134489357
SL-16 R/B               
1 25400U 98043G   25300.84032169  .00000149  00000+0  81104-4 0  9999
2 25400  98.8041 248.4202 0010627  44.2129 315.9898 14.26008109420058
SL-16 R/B               
1 25407U 98045B   25300.85253037  .00000211  00000+0  13093-3 0  9999
2 25407  71.0087 100.9227 0009225 237.0437 122.9799 14.16162375408296
ISS (ZARYA)             
1 25544U 98067A   25300.68375553  .00015570  00000+0  28487-3 0  9991
2 25544  51.6344  10.4932 0004705 346.2107  13.8753 15.49527127535714
CZ-4B R/B               
1 25732U 99025C   25300.56023123  .00000124  00000+0  80692-4 0  9991
2 25732  98.6839 342.8563 0037247   9.5166 159.9189 14.18226730369290
OKEAN-O                 
1 25860U 99039A   25300.61606331  .00001043  00000+0  14466-3 0  9998
2 25860  97.9668 356.7031 0001839  79.5904 280.5515 14.80045071414700
SL-16 R/B               
1 25861U 99039B   25300.38560400  .00000925  00000+0  12484-3 0  9995
2 25861  98.0193 354.5187 0014208 334.8659  25.1860 14.81487481417123
DELTA 2 R/B             
1 25876U 99041E   25300.82383535  .00000955  00000+0  19249-3 0  9994
2 25876  51.7629 111.7024 0504541 316.4347  39.7757 14.11245853344264
HELIOS 1B               
1 25977U 99064A   25300.64659769  .00002816  00000+0  32089-3 0  9991
2 25977  98.1755 193.9535 0002328 105.5544 254.5928 14.86999305665489
TERRA                   
1 25994U 99068A   25300.85534255  .00000705  00000+0  15322-3 0  9995
2 25994  97.9815 354.2066 0001247 213.8600 262.4323 14.60872482375683
SL-16 R/B               
1 26070U 00006B   25300.62159248  .00000227  00000+0  13949-3 0  9997
2 26070  71.0044  17.6268 0015785  16.6487 343.5151 14.15794740329728
TITAN 4B R/B            
1 26474U 00047B   25300.79476065  .00006337  00000+0  40726-3 0  9998
2 26474  67.9909  53.8423 0043767 197.2412 162.7254 15.08262711372869
ENVISAT                 
1 27386U 02009A   25300.86703838  .00000226  00000+0  87103-4 0  9992
2 27386  98.3520 252.7890 0001334  85.7226 298.1660 14.38973483240074
IDEFIX & ARIANE 42P R/B 
1 27422U 02021B   25300.85236419  .00000466  00000+0  19405-3 0  9997
2 27422  98.5712 236.1568 0010990 214.6767 145.3700 14.30899606225021
AQUA                    
1 27424U 02022A   25300.88765618  .00001646  00000+0  34065-3 0  9991
2 27424  98.3965 261.0442 0001434  52.3581 332.3585 14.61642781249336
CZ-4B R/B               
1 27432U 02024C   25300.61715193  .00000064  00000+0  55977-4 0  9995
2 27432  98.9069 349.5334 0050804  41.8316 120.5568 14.14513992210427
MIDORI II (ADEOS-II)    
1 27597U 02056A   25300.85898160  .00000462  00000+0  19994-3 0  9994
2 27597  98.7557 253.5934 0001914  55.7070 304.4293 14.29157818191320
H-2A R/B                
1 27601U 02056E   25300.89644920  .00000439  00000+0  16877-3 0  9998
2 27601  98.2991 261.4967 0069852 196.4188 222.2628 14.33627494195088
CZ-4B R/B               
1 28059U 03049C   25300.86048406  .00000701  00000+0  17299-3 0  9994
2 28059  98.6755 285.6992 0047117 277.3885  82.1958 14.54843610167280
CZ-2C R/B               
1 28222U 04012C   25300.81173963  .00034425  00000+0  57724-3 0  9996
2 28222  97.7498 349.7693 0020971  79.8409 280.5207 15.51505175183594
SL-16 R/B               
1 28353U 04021B   25300.86980184 -.00000269  00000+0 -11511-3 0  9992
2 28353  70.9988 151.2245 0007325 250.7490 109.2840 14.14571866104055
